ONEWEB-0389             
1 50469U 21132A   26008.12527381  .00000016  00000+0  85784-5 0  9991
2 50469  87.9090  37.6885 0002133  99.2503 260.8870 13.17648106197008
ONEWEB-0390             
1 50470U 21132B   26008.12695350  .00000042  00000+0  74011-4 0  9994
2 50470  87.9086  37.6892 0001628 101.9845 258.1470 13.17647568197008
ONEWEB-0391             
1 50471U 21132C   26008.12865559  .00000020  00000+0  18243-4 0  9996
2 50471  87.9085  37.6985 0002385 112.8876 247.2508 13.17649782197008
ONEWEB-0392             
1 50472U 21132D   26008.31089159 -.00000040  00000+0 -13599-3 0  9994
2 50472  87.9095  37.6167 0002097 101.0773 259.0594 13.17648422197060
ONEWEB-0393             
1 50473U 21132E   26008.05621766  .00000036  00000+0  59141-4 0  9999
2 50473  87.9095  37.6901 0001945  98.0601 262.0751 13.17647569197029
ONEWEB-0394             
1 50474U 21132F   26008.22605060  .00000081  00000+0  17154-3 0  9995
2 50474  87.9179   7.1999 0001955  89.2519 270.8838 13.18685131200513
ONEWEB-0395             
1 50475U 21132G   26008.17271917  .00000309  00000+0  83600-3 0  9992
2 50475  87.8827  52.9330 0001751 106.1867 253.9454 13.11418948194745
ONEWEB-0396             
1 50476U 21132H   26008.21946347  .00000044  00000+0  77840-4 0  9990
2 50476  87.9179   7.2133 0001894  89.3265 270.8084 13.18685158200553
ONEWEB-0397             
1 50477U 21132J   26008.23430081  .00000000  00000+0 -33609-4 0  9994
2 50477  87.9180   7.2106 0001990  85.8906 274.2454 13.18685258200534
ONEWEB-0398             
1 50478U 21132K   26008.06419807 -.00000468  00000+0 -13564-2 0  9994
2 50478  87.8837  52.9298 0001578 110.8071 249.3226 13.11417464194623
ONEWEB-0399             
1 50479U 21132L   26008.12694330 -.00000018  00000+0 -86944-4 0  9993
2 50479  87.8824  52.9298 0002318 100.0727 260.0663 13.11414462194622
ONEWEB-0400             
1 50480U 21132M   26008.28873234  .00000069  00000+0  14338-3 0  9995
2 50480  87.9179   7.1897 0001609  92.2476 267.8840 13.18685190200535
ONEWEB-0401             
1 50481U 21132N   26008.25740410  .00000000  00000+0 -32594-4 0  9993
2 50481  87.9177   7.1921 0001855  82.2016 277.9326 13.18686393200531
ONEWEB-0402             
1 50482U 21132P   26008.22109267 -.00000023  00000+0 -91308-4 0  9994
2 50482  87.9178   7.1917 0002032  73.4699 286.6656 13.18683995200555
ONEWEB-0403             
1 50483U 21132Q   26008.24586010  .00000020  00000+0  17854-4 0  9991
2 50483  87.9180   7.2088 0001829  91.1610 268.9732 13.18685297200513
ONEWEB-0404             
1 50484U 21132R   26008.10829303  .00000535  00000+0  14750-2 0  9993
2 50484  87.8828  52.9424 0002086 104.1939 255.9421 13.11417034194718
ONEWEB-0405             
1 50485U 21132S   26008.26070484  .00000011  00000+0 -46445-5 0  9998
2 50485  87.9179   7.1897 0001979  82.8943 277.2415 13.18685217200919
ONEWEB-0406             
1 50486U 21132T   26008.25080266  .00000012  00000+0 -28683-5 0  9992
2 50486  87.9181   7.2170 0001900 104.1879 255.9464 13.18684990200541
ONEWEB-0407             
1 50487U 21132U   26008.24420310  .00000056  00000+0  10980-3 0  9996
2 50487  87.9180   7.2018 0001697  82.7128 277.4198 13.18685067200485
ONEWEB-0409             
1 50488U 21132V   26008.18289691  .00000567  00000+0  15652-2 0  9992
2 50488  87.8845  52.9005 0001929 109.2810 250.8527 13.11416739194616
ONEWEB-0412             
1 50489U 21132W   26008.23264477  .00000035  00000+0  55728-4 0  9994
2 50489  87.9181   7.2174 0001977  80.1642 279.9713 13.18684382200574
ONEWEB-0413             
1 50490U 21132X   26008.23761670 -.00000033  00000+0 -11722-3 0  9998
2 50490  87.9170   7.2265 0001800  77.6466 282.4868 13.18686567200516
ONEWEB-0414             
1 50491U 21132Y   26008.22275489 -.00000032  00000+0 -11491-3 0  9998
2 50491  87.9181   7.1955 0001964  85.4947 274.6409 13.18684456200548
ONEWEB-0417             
1 50492U 21132Z   26008.23100290 -.00000028  00000+0 -10358-3 0  9993
2 50492  87.9175   7.2271 0001893  94.4994 265.6354 13.18685518200524
ONEWEB-0418             
1 50493U 21132AA  26008.24076834  .00000004  00000+0 -22567-4 0  9990
2 50493  87.9179   7.2098 0002042 101.1188 259.0174 13.18685182200584
ONEWEB-0419             
1 50494U 21132AB  26008.25904537  .00000036  00000+0  58894-4 0  9998
2 50494  87.9180   7.2061 0001677  98.7338 261.3984 13.18684699200507
ONEWEB-0420             
1 50495U 21132AC  26008.22441332  .00000025  00000+0  31887-4 0  9996
2 50495  87.9180   7.2253 0001688  83.2434 276.8890 13.18685618200496
ONEWEB-0421             
1 50496U 21132AD  26008.21781821  .00000006  00000+0 -18361-4 0  9998
2 50496  87.9179   7.2190 0002046  83.9827 276.1538 13.18685460200539
ONEWEB-0424             
1 50497U 21132AE  26008.02646706  .00000023  00000+0  25196-4 0  9992
2 50497  87.9179   7.2524 0001532  99.0485 261.0821 13.18684925200531
ONEWEB-0426             
1 50498U 21132AF  26008.29038922 -.00000019  00000+0 -80740-4 0  9990
2 50498  87.9181   7.1917 0002458  90.5334 269.6080 13.18684680200514
ONEWEB-0427             
1 50499U 21132AG  26008.25245789  .00000110  00000+0  24511-3 0  9991
2 50499  87.9178   7.1862 0001899  94.9030 265.2319 13.18687105200533
ONEWEB-0429             
1 50500U 21132AH  26008.23925217 -.00000026  00000+0 -97808-4 0  9991
2 50500  87.9180   7.2213 0001692  84.6554 275.4771 13.18685538200508
ONEWEB-0430             
1 50501U 21132AJ  26008.22770642  .00000017  00000+0  97043-5 0  9991
2 50501  87.9182   7.2198 0001513  89.6796 270.4509 13.18685295200546
ONEWEB-0432             
1 50502U 21132AK  26008.25979571  .00000057  00000+0  11288-3 0  9996
2 50502  87.9175   7.1838 0001944 116.7127 243.4204 13.18678882200509
ONEWEB-0440             
1 50503U 21132AL  26008.24750682 -.00000021  00000+0 -87222-4 0  9991
2 50503  87.9180   7.2054 0001948  76.7367 283.3982 13.18685032200491
ONEWEB-0450             
1 50504U 21132AM  26008.24105112  .00000058  00000+0  11418-3 0  9995
2 50504  87.9174   7.2272 0001545  81.5264 278.6043 13.18686848200525
ONEWEB-0410             
1 51622U 22012A   26008.06790058  .00000016  00000+0  77719-5 0  9996
2 51622  87.9098  37.6735 0003067 109.4479 250.6985 13.17648138192616
ONEWEB-0411             
1 51623U 22012B   26008.19673291 -.00000354  00000+0 -10516-2 0  9996
2 51623  87.8785  68.1592 0001264 111.9748 248.1514 13.10373860188337
ONEWEB-0415             
1 51624U 22012C   26008.19342794 -.00000602  00000+0 -17619-2 0  9995
2 51624  87.8785  68.1623 0001493 107.5977 252.5313 13.10374915188330
ONEWEB-0416             
1 51625U 22012D   26008.12869863 -.00000060  00000+0 -20740-3 0  9998
2 51625  87.8785  68.1958 0001693 116.7317 243.3984 13.10376226188366
ONEWEB-0422             
1 51626U 22012E   26008.30583856  .00000046  00000+0  84706-4 0  9999
2 51626  87.9096  37.6292 0001669  71.6744 288.4569 13.17648962192754
ONEWEB-0423             
1 51627U 22012F   26008.07128107  .00000047  00000+0  87674-4 0  9996
2 51627  87.9095  37.6858 0001826  90.7017 269.4324 13.17649936192617
ONEWEB-0425             
1 51628U 22012G   26008.21502609  .00000453  00000+0  12611-2 0  9994
2 51628  87.8793  68.1518 0002137 102.9621 257.1745 13.10375343188377
ONEWEB-0428             
1 51629U 22012H   26008.19508762 -.00000452  00000+0 -13316-2 0  9992
2 51629  87.8787  68.1728 0001772  99.2354 260.8974 13.10374952188335
ONEWEB-0431             
1 51630U 22012J   26008.16507547  .00000466  00000+0  13000-2 0  9994
2 51630  87.8782  68.1602 0001124 106.1582 253.9670 13.10371402188383
ONEWEB-0434             
1 51631U 22012K   26008.21848693  .00000586  00000+0  16433-2 0  9997
2 51631  87.8783  68.1831 0002449 102.3040 257.8361 13.10374967188375
ONEWEB-0435             
1 51632U 22012L   26008.15028859  .00000833  00000+0  23505-2 0  9998
2 51632  87.8777  68.1867 0001633  88.8939 271.2376 13.10371441188355
ONEWEB-0436             
1 51633U 22012M   26008.13877797  .00000038  00000+0  64111-4 0  9997
2 51633  87.9094  37.6508 0001628  89.1443 270.9875 13.17650238192604
ONEWEB-0438             
1 51634U 22012N   26008.21004153  .00000192  00000+0  51234-3 0  9997
2 51634  87.8784  68.1760 0001936 103.2129 256.9215 13.10376251188396
ONEWEB-0439             
1 51635U 22012P   26008.21336158  .00000340  00000+0  93738-3 0  9991
2 51635  87.8784  68.1639 0001806  98.2781 261.8551 13.10375354188374
ONEWEB-0442             
1 51636U 22012Q   26008.13119059 -.00000034  00000+0 -12119-3 0  9998
2 51636  87.9084  37.6974 0002221 106.6621 253.4755 13.17648622192591
ONEWEB-0443             
1 51637U 22012R   26008.30246314  .00000022  00000+0  24351-4 0  9990
2 51637  87.9083  37.6672 0002081  91.0911 269.0459 13.17649256192665
ONEWEB-0444             
1 51638U 22012S   26008.20339381 -.00000092  00000+0 -29841-3 0  9994
2 51638  87.8786  68.1646 0001782  98.7026 261.4303 13.10376088188384
ONEWEB-0445             
1 51639U 22012T   26008.22497649  .00000710  00000+0  19978-2 0  9993
2 51639  87.8796  68.1317 0001765 107.6929 252.4391 13.10372704188393
ONEWEB-0446             
1 51640U 22012U   26008.20172844 -.00000213  00000+0 -64555-3 0  9992
2 51640  87.8783  68.1815 0001710 105.7173 254.4143 13.10375606188373
ONEWEB-0448             
1 51641U 22012V   26008.20671182  .00000060  00000+0  13553-3 0  9992
2 51641  87.8784  68.1794 0001760  99.3416 260.7911 13.10376029188344
ONEWEB-0449             
1 51642U 22012W   26008.21170041  .00000296  00000+0  81268-3 0  9991
2 51642  87.8789  68.1522 0002260 102.1550 257.9831 13.10375711188354
ONEWEB-0451             
1 51643U 22012X   26008.13540672  .00000047  00000+0  88372-4 0  9992
2 51643  87.9096  37.6464 0001933  95.9340 264.2012 13.17649968192582
ONEWEB-0452             
1 51644U 22012Y   26008.13370759  .00000019  00000+0  16410-4 0  9993
2 51644  87.9084  37.6992 0002072  90.8284 269.3085 13.17647949192596
